[
    {
        "Altitude(m)": 624792.7430024985,
        "Argument of Periapsis(deg)": 0.0,
        "Eccentricity": 0.0,
        "Inclination(deg)": 60.0,
        "Latitude(deg)": -59.14699944269936,
        "Longitude(deg)": 129.0263039183784,
        "Mean Anomaly(deg)": -98.18179999999998,
        "RAAN(deg)": 335.0,
        "Satellite Name": "Test1 1490",
        "Satellite Number": 1490,
        "Semi-Major Axis(m)": 6980739.136638005,
        "Time(s)": 0
    },
    {
        "Altitude(m)": 624842.1355039986,
        "Argument of Periapsis(deg)": 0.00010418945913296404,
        "Eccentricity": 0.0,
        "Inclination(deg)": 60.0,
        "Latitude(deg)": -59.28908421958998,
        "Longitude(deg)": 130.1558045306881,
        "Mean Anomaly(deg)": -97.56169385453813,
        "RAAN(deg)": 334.99957995086027,
        "Satellite Name": "Test1 1490",
        "Satellite Number": 1490,
        "Semi-Major Axis(m)": 6980739.136638005,
        "Time(s)": 10
    }
]